OBJECT_NAME,OBJECT_ID,EPOCH,MEAN_MOTION,ECCENTRICITY,INCLINATION,RA_OF_ASC_NODE,ARG_OF_PERICENTER,MEAN_ANOMALY,EPHEMERIS_TYPE,CLASSIFICATION_TYPE,NORAD_CAT_ID,ELEMENT_SET_NO,REV_AT_EPOCH,BSTAR,MEAN_MOTION_DOT,MEAN_MOTION_DDOT
LEMUR-2-ARIANNA,2025-009CU,2026-06-05T12:03:26.820000,15.02299720,.00028686,97.6877,237.9804,151.7234,208.4147,0,U,62699,999,7580,.71524925E-3,.9394E-4,0
LEMUR-2-ALISIA,2025-009DB,2026-06-05T22:46:07.724064,15.02605884,.00006689,97.6968,239.1951,192.5489,167.5719,0,U,62706,999,9847,.84906429E-3,.11256E-3,0
LEMUR-2-ROUNDTRIPPER,2025-009DG,2026-06-04T04:24:59.435136,15.03559606,.00041072,97.7228,237.8844,173.7535,186.3743,0,U,62711,999,7567,.75495807E-3,.10258E-3,0
LEMUR-2-MYNAMEISJEFF,2025-009DH,2026-06-04T10:46:11.062560,15.03581129,.00024327,97.7280,238.5214,203.8502,156.2611,0,U,62712,999,7571,.79556037E-3,.10819E-3,0
LEMUR-2-LEIA-PHILIP,2025-052AN,2026-06-05T23:25:43.648896,14.97282066,.00021337,97.6844,49.1150,262.0630,98.0350,0,U,63246,999,6699,.19736787E-3,.223E-4,0
LEMUR-2-LIA-MARTIN,2025-052AQ,2026-06-05T23:37:55.358400,14.97704784,.00021155,97.6901,49.5816,181.2735,178.8482,0,U,63248,999,6700,.62115609E-3,.7224E-4,0
LEMUR-2-DELOITTE-1,2025-052BB,2026-06-05T11:48:14.555232,14.97512607,.00021731,97.6920,49.4259,118.1097,242.0345,0,U,63259,999,6694,.36559543E-3,.4206E-4,0
LEMUR-2-EMERSONROSE,2025-052BD,2026-06-06T00:18:07.505568,14.99006061,.00026918,97.6909,50.4760,77.0985,283.0538,0,U,63261,999,6706,.36013773E-3,.4306E-4,0
LEMUR-2-MARACHE-FRAN,2025-052BE,2026-06-05T22:17:16.632672,14.99978805,.00063515,97.6941,50.6848,58.4564,301.7279,0,U,63262,999,6707,.66536391E-3,.8219E-4,0
LEMUR-2-THEFALCONER,2025-052BG,2026-06-05T12:23:54.990816,14.97304514,.00036033,97.6872,49.0820,65.7117,294.4481,0,U,63264,999,6694,.430583E-3,.4938E-4,0
LEMUR-2-UNTITLED-SC,2025-061A,2026-06-06T04:18:24.951744,15.13396507,.00172213,97.5634,132.6226,306.5880,53.3766,0,U,63351,999,6592,.24009861E-3,.4233E-4,0
LEMUR-2-ESPERANZA,2025-061B,2026-06-05T21:25:39.120960,15.13487292,.00169322,97.5639,132.4290,307.0748,52.8934,0,U,63352,999,6588,.26874645E-3,.4758E-4,0
LEMUR-2-KREMPEL-BRO2,2025-061C,2026-06-05T20:33:59.507136,15.13920993,.00176147,97.5689,132.9121,298.8624,61.0839,0,U,63353,999,6589,.26362481E-3,.4725E-4,0
LEMUR-2-THERMORAPTOR,2025-061D,2026-06-06T04:04:52.613760,15.14001058,.00173532,97.5693,133.2970,296.5844,63.3609,0,U,63354,999,6594,.26918792E-3,.4837E-4,0
LEMUR-2-NEUROSPICY,2025-061E,2026-06-05T21:04:37.736256,15.14112984,.00152688,97.5620,132.6419,301.9639,58.0108,0,U,63355,999,6590,.30282618E-3,.5463E-4,0
LEMUR-2-TILLINFINITY,2025-061F,2026-06-05T20:26:34.135008,15.14700005,.00162693,97.5606,132.8982,288.8137,71.1330,0,U,63356,999,6592,.25120662E-3,.4598E-4,0
LEMUR-2-KREMPEL-BRO1,2025-061G,2026-06-06T03:41:58.587648,15.14507640,.00169658,97.5606,133.1179,288.7998,71.1393,0,U,63357,999,6596,.287992E-3,.5254E-4,0
LEMUR-2-LANGER2SPACE,2025-061H,2026-06-06T04:16:58.264032,15.14205296,.00150546,97.5612,132.9604,299.1416,60.8308,0,U,63358,999,6595,.24285256E-3,.4378E-4,0
LEMUR-2-BALTO,2025-052BH,2026-06-05T23:31:05.073312,14.99963673,.00064576,97.6877,50.7223,85.6292,274.5669,0,U,63395,999,6708,.60325813E-3,.7442E-4,0
LEMUR-2-KRISH,2025-135AK,2026-06-05T13:42:19.640160,14.96093244,.00011527,97.7729,271.5301,100.4892,259.6459,0,U,64561,999,5218,.47359301E-3,.5268E-4,0
LEMUR-2-HUBBLE-4,2025-135AP,2026-06-05T21:04:43.296096,14.93166408,.0001837,97.7688,270.9228,6.7061,353.4183,0,U,64565,999,5218,.19616467E-3,.1991E-4,0
LEMUR-2-SEJONG-2,2025-135BL,2026-06-06T04:57:36.223200,14.96611914,.0004701,97.7683,272.3043,26.0715,334.0742,0,U,64586,999,5230,.62204881E-3,.7034E-4,0
LEMUR-2-HUBBLE-5,2025-135BT,2026-06-05T20:08:47.520960,14.94100124,.00060391,97.7708,271.4995,30.5991,329.5580,0,U,64840,999,5221,.15470675E-3,.1596E-4,0
LEMUR-2-KARENDARRELL,2025-135BU,2026-06-06T01:04:34.357440,14.99948813,.00089915,97.7674,273.2741,245.5735,114.4550,0,U,64841,999,5234,.87343344E-3,.10806E-3,0
LEMUR-2-LUCILLE-ROSE,2025-135BV,2026-06-05T21:15:11.799936,15.00006001,.00106491,97.7773,273.1201,327.0038,33.0519,0,U,65403,999,4694,.79533409E-3,.9851E-4,0
LEMUR-2-AFFIE-WAUWIE,2025-248C,2026-06-05T08:17:02.238720,15.26809642,.00091039,45.3864,179.1302,8.2322,351.8715,0,U,66295,999,3278,.47373351E-3,.12446E-3,0
LEMUR-2-DEANANDMAEVE,2025-276N,2026-06-05T23:44:24.724320,15.19593257,.00067134,97.4208,230.6523,49.6673,310.5147,0,U,66678,999,2871,.41961533E-3,.8873E-4,0
LEMUR-2-STAS-GORBUK,2025-276W,2026-06-06T03:11:21.298560,15.19262877,.00061884,97.4244,230.8489,50.0414,310.1363,0,U,66686,999,2873,.36520417E-3,.7638E-4,0
LEMUR-2-TEODOR,2025-276DG,2026-06-05T11:18:01.743264,15.20917520,.00017418,97.4148,230.4193,124.6345,235.5055,0,U,66768,999,2866,.28460424E-3,.6228E-4,0
