LEMUR-2-ARIANNA         
1 62699U 25009CU  26156.50239375  .00009394  00000+0  71525-3 0  9999
2 62699  97.6877 237.9804 0002868 151.7234 208.4147 15.02299720 75801
LEMUR-2-ALISIA          
1 62706U 25009DB  26156.94870051  .00011256  00000+0  84906-3 0  9995
2 62706  97.6968 239.1951 0000668 192.5489 167.5719 15.02605884 98479
LEMUR-2-ROUNDTRIPPER    
1 62711U 25009DG  26155.18402124  .00010258  00000+0  75496-3 0  9993
2 62711  97.7228 237.8844 0004107 173.7535 186.3743 15.03559606 75670
LEMUR-2-MYNAMEISJEFF    
1 62712U 25009DH  26155.44873915  .00010819  00000+0  79556-3 0  9997
2 62712  97.7280 238.5214 0002432 203.8502 156.2611 15.03581129 75716
LEMUR-2-LEIA-PHILIP     
1 63246U 25052AN  26156.97619964  .00002230  00000+0  19737-3 0  9992
2 63246  97.6844  49.1150 0002133 262.0630  98.0350 14.97282066 66999
LEMUR-2-LIA-MARTIN      
1 63248U 25052AQ  26156.98466850  .00007224  00000+0  62116-3 0  9996
2 63248  97.6901  49.5816 0002115 181.2735 178.8482 14.97704784 67008
LEMUR-2-DELOITTE-1      
1 63259U 25052BB  26156.49183513  .00004206  00000+0  36560-3 0  9997
2 63259  97.6920  49.4259 0002173 118.1097 242.0345 14.97512607 66940
LEMUR-2-EMERSONROSE     
1 63261U 25052BD  26157.01258687  .00004306  00000+0  36014-3 0  9999
2 63261  97.6909  50.4760 0002691  77.0985 283.0538 14.99006061 67060
LEMUR-2-MARACHE-FRAN    
1 63262U 25052BE  26156.92866473  .00008219  00000+0  66536-3 0  9996
2 63262  97.6941  50.6848 0006351  58.4564 301.7279 14.99978805 67074
LEMUR-2-THEFALCONER     
1 63264U 25052BG  26156.51660869  .00004938  00000+0  43058-3 0  9992
2 63264  97.6872  49.0820 0003603  65.7117 294.4481 14.97304514 66949
LEMUR-2-UNTITLED-SC     
1 63351U 25061A   26157.17945546  .00004233  00000+0  24010-3 0  9995
2 63351  97.5634 132.6226 0017221 306.5880  53.3766 15.13396507 65921
LEMUR-2-ESPERANZA       
1 63352U 25061B   26156.89281390  .00004758  00000+0  26875-3 0  9997
2 63352  97.5639 132.4290 0016932 307.0748  52.8934 15.13487292 65881
LEMUR-2-KREMPEL-BRO2    
1 63353U 25061C   26156.85693874  .00004725  00000+0  26362-3 0  9993
2 63353  97.5689 132.9121 0017614 298.8624  61.0839 15.13920993 65890
LEMUR-2-THERMORAPTOR    
1 63354U 25061D   26157.17005340  .00004837  00000+0  26919-3 0  9997
2 63354  97.5693 133.2970 0017353 296.5844  63.3609 15.14001058 65940
LEMUR-2-NEUROSPICY      
1 63355U 25061E   26156.87821454  .00005463  00000+0  30283-3 0  9991
2 63355  97.5620 132.6419 0015268 301.9639  58.0108 15.14112984 65900
LEMUR-2-TILLINFINITY    
1 63356U 25061F   26156.85178397  .00004598  00000+0  25121-3 0  9994
2 63356  97.5606 132.8982 0016269 288.8137  71.1330 15.14700005 65922
LEMUR-2-KREMPEL-BRO1    
1 63357U 25061G   26157.15415032  .00005254  00000+0  28799-3 0  9993
2 63357  97.5606 133.1179 0016965 288.7998  71.1393 15.14507640 65965
LEMUR-2-LANGER2SPACE    
1 63358U 25061H   26157.17845213  .00004378  00000+0  24285-3 0  9996
2 63358  97.5612 132.9604 0015054 299.1416  60.8308 15.14205296 65954
LEMUR-2-BALTO           
1 63395U 25052BH  26156.97991983  .00007442  00000+0  60326-3 0  9991
2 63395  97.6877  50.7223 0006457  85.6292 274.5669 14.99963673 67082
LEMUR-2-KRISH           
1 64561U 25135AK  26156.57106065  .00005268  00000+0  47359-3 0  9999
2 64561  97.7729 271.5301 0001152 100.4892 259.6459 14.96093244 52185
LEMUR-2-HUBBLE-4        
1 64565U 25135AP  26156.87827889  .00001991  00000+0  19616-3 0  9994
2 64565  97.7688 270.9228 0001837   6.7061 353.4183 14.93166408 52187
LEMUR-2-SEJONG-2        
1 64586U 25135BL  26157.20666925  .00007034  00000+0  62205-3 0  9993
2 64586  97.7683 272.3043 0004701  26.0715 334.0742 14.96611914 52300
LEMUR-2-HUBBLE-5        
1 64840U 25135BT  26156.83943890  .00001596  00000+0  15471-3 0  9993
2 64840  97.7708 271.4995 0006039  30.5991 329.5580 14.94100124 52212
LEMUR-2-KARENDARRELL    
1 64841U 25135BU  26157.04484210  .00010806  00000+0  87343-3 0  9995
2 64841  97.7674 273.2741 0008991 245.5735 114.4550 14.99948813 52349
LEMUR-2-LUCILLE-ROSE    
1 65403U 25135BV  26156.88555324  .00009851  00000+0  79533-3 0  9996
2 65403  97.7773 273.1201 0010649 327.0038  33.0519 15.00006001 46946
LEMUR-2-AFFIE-WAUWIE    
1 66295U 25248C   26156.34516480  .00012446  00000+0  47373-3 0  9993
2 66295  45.3864 179.1302 0009103   8.2322 351.8715 15.26809642 32786
LEMUR-2-DEANANDMAEVE    
1 66678U 25276N   26156.98917505  .00008873  00000+0  41962-3 0  9999
2 66678  97.4208 230.6523 0006713  49.6673 310.5147 15.19593257 28714
LEMUR-2-STAS-GORBUK     
1 66686U 25276W   26157.13288540  .00007638  00000+0  36520-3 0  9998
2 66686  97.4244 230.8489 0006188  50.0414 310.1363 15.19262877 28730
LEMUR-2-TEODOR          
1 66768U 25276DG  26156.47085351  .00006228  00000+0  28460-3 0  9998
2 66768  97.4148 230.4193 0001741 124.6345 235.5055 15.20917520 28667
